[{"OBJECT_NAME":"JILIN-1 07","OBJECT_ID":"2018-008E","EPOCH":"2026-03-09T22:24:26.445888","MEAN_MOTION":15.32987507,"ECCENTRICITY":0.00101791,"INCLINATION":97.1876,"RA_OF_ASC_NODE":91.5817,"ARG_OF_PERICENTER":62.7832,"MEAN_ANOMALY":297.4447,"EPHEMERIS_TYPE":0,"CLASSIFICATION_TYPE":"U","NORAD_CAT_ID":43159,"ELEMENT_SET_NO":999,"REV_AT_EPOCH":44978,"BSTAR":0.00036439521,"MEAN_MOTION_DOT":0.00011559,"MEAN_MOTION_DDOT":0},{"OBJECT_NAME":"STARLINK-32423","OBJECT_ID":"2024-171U","EPOCH":"2026-03-09T22:04:56.732448","MEAN_MOTION":15.3019008,"ECCENTRICITY":8.572e-5,"INCLINATION":53.1603,"RA_OF_ASC_NODE":321.384,"ARG_OF_PERICENTER":86.136,"MEAN_ANOMALY":273.9739,"EPHEMERIS_TYPE":0,"CLASSIFICATION_TYPE":"U","NORAD_CAT_ID":61218,"ELEMENT_SET_NO":999,"REV_AT_EPOCH":8331,"BSTAR":4.2247705e-5,"MEAN_MOTION_DOT":8.92e-6,"MEAN_MOTION_DDOT":0}]
